SL-16 R/B               
1 25400U 98043G   25359.70866310  .00000075  00000+0  50483-4 0  9995
2 25400  98.8145 307.6006 0009021 224.8668 135.1783 14.26028352428441
SL-16 R/B               
1 25407U 98045B   25359.33754009  .00000301  00000+0  17626-3 0  9997
2 25407  71.0121 337.9330 0006203 155.6594 204.4823 14.16178211416574
ISS (ZARYA)             
1 25544U 98067A   25359.56752749  .00014081  00000+0  25591-3 0  9997
2 25544  51.6318  78.9495 0003224 299.9641  60.1027 15.49813539544848
CZ-4B R/B               
1 25732U 99025C   25359.74006828  .00000072  00000+0  55451-4 0  9995
2 25732  98.6751  40.7282 0036870 196.0556 275.0384 14.18246771377687
OKEAN-O                 
1 25860U 99039A   25359.70132449  .00000747  00000+0  10524-3 0  9997
2 25860  97.9585  55.2898 0001142 114.5707 245.5624 14.80182856423444
SL-16 R/B               
1 25861U 99039B   25359.75151184  .00000650  00000+0  89374-4 0  9993
2 25861  98.0108  53.9025 0015812 134.0282 226.2236 14.81604653425913
DELTA 2 R/B             
1 25876U 99041E   25359.10512946  .00001138  00000+0  22274-3 0  9995
2 25876  51.7604 239.0838 0504426 128.2080 236.5395 14.11433175352494
HELIOS 1B               
1 25977U 99064A   25359.72057163  .00002366  00000+0  26851-3 0  9994
2 25977  98.1748 254.7715 0000959  32.0133 328.1140 14.87332823674260
TERRA                   
1 25994U 99068A   25359.75680666  .00000486  00000+0  10839-3 0  9990
2 25994  97.9731  50.9624 0003409  68.5848  41.4376 14.60916058384288
SL-16 R/B               
1 26070U 00006B   25359.75753691  .00000165  00000+0  10803-3 0  9994
2 26070  71.0012 253.2867 0018589 291.0125  68.9009 14.15809131338090
TITAN 4B R/B            
1 26474U 00047B   25359.73594187  .00003776  00000+0  24357-3 0  9998
2 26474  67.9887 248.3539 0038023 128.5799 231.8766 15.08872613381759
ENVISAT                 
1 27386U 02009A   25352.94754304  .00000081  00000+0  39999-4 0  9991
2 27386  98.3609 303.5309 0001126  84.8976 298.2993 14.39001403247569
